NORAD_CAT_ID,OBJECT_NAME,OBJECT_TYPE,EPOCH,MEAN_MOTION,ECCENTRICITY,INCLINATION,RA_OF_ASC_NODE,ARG_OF_PERICENTER,MEAN_ANOMALY,BSTAR,MEAN_MOTION_DOT,MEAN_MOTION_DDOT,TLE_LINE0,TLE_LINE1,TLE_LINE2,SEMIMAJOR_AXIS,PERIOD,APOGEE,PERIGEE,DECAYED
49771.0,STARLINK-3201,PAYLOAD,2022-09-01 03:32:33,15.08852951,0.0002163,53.2166,150.1447,61.9428,298.1783,5.5394e-05,5.94e-06,0.0,0 STARLINK-3201,1 49771U 21115AZ  22244.14760548  .00000594  00000-0  55394-4 0  9995,2 49771  53.2166 150.1447 0002163  61.9428 298.1783 15.08852951 41600,6917.840999999999,95.437,541.202,538.2090000000002,0.0
49771.0,STARLINK-3201,PAYLOAD,2022-09-01 21:01:48,15.08845051,0.0002320999999999,53.2159,146.874,59.715,300.4071,-3.9246e-05,-9.13e-06,0.0,0 STARLINK-3201,1 49771U 21115AZ  22244.87625035 -.00000913  00000-0 -39246-4 0  9991,2 49771  53.2159 146.8740 0002321  59.7150 300.4071 15.08845051 42828,6917.865,95.437,541.336,538.124,0.0
49771.0,STARLINK-3201,PAYLOAD,2022-09-02 03:23:19,15.08857336,0.0002059,53.2164,145.6828,70.7688,289.3527,-0.00016615,-2.933e-05,0.0,0 STARLINK-3201,1 49771U 21115AZ  22245.14120350 -.00002933  00000-0 -16615-3 0  9990,2 49771  53.2164 145.6828 0002059  70.7688 289.3527 15.08857336 42869,6917.8269999999975,95.436,541.117,538.268,0.0
49771.0,STARLINK-3201,PAYLOAD,2022-09-02 20:52:34,15.08844687,0.0002055,53.2164,142.412,65.6989,294.4217,2.646e-05,1.33e-06,0.0,0 STARLINK-3201,1 49771U 21115AZ  22245.86984552  .00000133  00000-0  26460-4 0  9999,2 49771  53.2164 142.4120 0002055  65.6989 294.4217 15.08844687 42972,6917.866,95.437,541.153,538.309,0.0
49771.0,STARLINK-3201,PAYLOAD,2022-09-03 03:14:07,15.0883981,0.0002026999999999,53.2165,141.2229,64.2662,295.8539,-5.3312e-06,-3.73e-06,0.0,0 STARLINK-3201,1 49771U 21115AZ  22246.13481089 -.00000373  00000-0 -53312-5 0  9992,2 49771  53.2165 141.2229 0002027  64.2662 295.8539 15.08839810 43012,6917.880999999999,95.438,541.148,538.344,0.0
49771.0,STARLINK-3201,PAYLOAD,2022-09-03 20:43:21,15.08846116,0.0001974,53.2164,137.9518,64.445,295.6747,9.9974e-05,1.304e-05,0.0,0 STARLINK-3201,1 49771U 21115AZ  22246.86344409  .00001304  00000-0  99974-4 0  9992,2 49771  53.2164 137.9518 0001974  64.4450 295.6747 15.08846116 42016,6917.861999999999,95.437,541.092,538.361,0.0
49771.0,STARLINK-3201,PAYLOAD,2022-09-04 09:26:26,15.088476000000002,0.0002008999999999,53.2164,135.5731,65.3268,294.7933,8.429299999999999e-05,1.054e-05,0.0,0 STARLINK-3201,1 49771U 21115AZ  22247.39336097  .00001054  00000-0  84293-4 0  9995,2 49771  53.2164 135.5731 0002009  65.3268 294.7933 15.08847600 42098,6917.857,95.437,541.112,538.332,0.0
49771.0,STARLINK-3201,PAYLOAD,2022-09-05 01:20:17,15.08846242,0.0001964,53.2161,132.5985,64.7497,295.3699,9.6744e-05,1.252e-05,0.0,0 STARLINK-3201,1 49771U 21115AZ  22248.05575815  .00001252  00000-0  96744-4 0  9996,2 49771  53.2161 132.5985 0001964  64.7497 295.3699 15.08846242 43301,6917.861,95.437,541.085,538.368,0.0
49771.0,STARLINK-3201,PAYLOAD,2022-09-05 09:17:13,15.0884536,0.0002018,53.2162,131.1119,65.6923,294.428,7.477800000000001e-05,9.02e-06,0.0,0 STARLINK-3201,1 49771U 21115AZ  22248.38695747  .00000902  00000-0  74778-4 0  9993,2 49771  53.2162 131.1119 0002018  65.6923 294.4280 15.08845360 42249,6917.864000000001,95.437,541.125,538.3330000000002,0.0
49771.0,STARLINK-3201,PAYLOAD,2022-09-06 01:11:05,15.08837446,0.0001989,53.2165,128.1392,62.9967,297.1228,-6.3411e-05,-1.297e-05,0.0,0 STARLINK-3201,1 49771U 21115AZ  22249.04936581 -.00001297  00000-0 -63411-4 0  9993,2 49771  53.2165 128.1392 0001989  62.9967 297.1228 15.08837446 42344,6917.888000000001,95.438,541.129,538.377,0.0
49771.0,STARLINK-3201,PAYLOAD,2022-09-06 15:29:34,15.08810952,0.0001468,53.2166,125.461,64.5054,295.6090000000001,3.3112e-05,2.39e-06,0.0,0 STARLINK-3201,1 49771U 21115AZ  22249.64553998  .00000239  00000-0  33112-4 0  9994,2 49771  53.2166 125.4610 0001468  64.5054 295.6090 15.08810952 42438,6917.969,95.439,540.85,538.819,0.0
49771.0,STARLINK-3201,PAYLOAD,2022-09-07 01:01:53,15.088332,0.0001579,53.2165,123.6763,73.5785,286.538,-0.00018265,-3.193e-05,0.0,0 STARLINK-3201,1 49771U 21115AZ  22250.04297512 -.00003193  00000-0 -18265-3 0  9992,2 49771  53.2165 123.6763 0001579  73.5785 286.5380 15.08833200 43602,6917.901,95.438,540.859,538.674,0.0
49771.0,STARLINK-3201,PAYLOAD,2022-09-08 00:52:40,15.08834539,0.0001616,53.2162,119.2156,61.6147,298.5007,4.4945e-05,4.27e-06,0.0,0 STARLINK-3201,1 49771U 21115AZ  22251.03657551  .00000427  00000-0  44945-4 0  9995,2 49771  53.2162 119.2156 0001616  61.6147 298.5007 15.08834539 43759,6917.897,95.438,540.88,538.644,0.0
49771.0,STARLINK-3201,PAYLOAD,2022-09-08 08:49:35,15.088385,0.0001539,53.2161,117.7294,63.2426,296.8723,0.00010975,1.459e-05,0.0,0 STARLINK-3201,1 49771U 21115AZ  22251.36777301  .00001459  00000-0  10975-3 0  9998,2 49771  53.2161 117.7294 0001539  63.2426 296.8723 15.08838500 42696,6917.885,95.438,540.815,538.685,0.0
49771.0,STARLINK-3201,PAYLOAD,2022-09-09 00:43:27,15.08846162,0.0001578,53.2157,114.7565,61.831,298.2842,0.00040697,6.196e-05,0.0,0 STARLINK-3201,1 49771U 21115AZ  22252.03017599  .00006196  00000-0  40697-3 0  9996,2 49771  53.2157 114.7565 0001578  61.8310 298.2842 15.08846162 42790,6917.861999999999,95.437,540.818,538.635,0.0
49771.0,STARLINK-3201,PAYLOAD,2022-09-09 19:48:04,15.08848416,0.000179,53.2154,111.19,55.4835,304.6326,0.00016091,2.274e-05,0.0,0 STARLINK-3201,1 49771U 21115AZ  22252.82505411  .00002274  00000-0  16091-3 0  9992,2 49771  53.2154 111.1900 0001790  55.4835 304.6326 15.08848416 42915,6917.855,95.437,540.9580000000002,538.481,0.0
49771.0,STARLINK-3201,PAYLOAD,2022-09-10 00:34:14,15.08846735,0.0001956999999999,53.2166,110.299,46.938,313.1776,0.00010136,1.326e-05,0.0,0 STARLINK-3201,1 49771U 21115AZ  22253.02377447  .00001326  00000-0  10136-3 0  9992,2 49771  53.2166 110.2990 0001957  46.9380 313.1776 15.08846735 44055,6917.86,95.437,541.0790000000002,538.371,0.0
49771.0,STARLINK-3201,PAYLOAD,2022-09-10 19:38:51,15.08843077,0.0001495,53.2161,106.7266,67.9624,292.1527,-3.5448000000000003e-05,-8.52e-06,0.0,0 STARLINK-3201,1 49771U 21115AZ  22253.81865251 -.00000852  00000-0 -35448-4 0  9993,2 49771  53.2161 106.7266 0001495  67.9624 292.1527 15.08843077 43063,6917.871,95.437,540.77,538.702,0.0
49771.0,STARLINK-3201,PAYLOAD,2022-09-11 00:25:01,15.08839453,0.0001431999999999,53.216,105.8357,62.8203,297.2935,-6.956699999999999e-05,-1.395e-05,0.0,0 STARLINK-3201,1 49771U 21115AZ  22254.01737820 -.00001395  00000-0 -69567-4 0  9998,2 49771  53.2160 105.8357 0001432  62.8203 297.2935 15.08839453 44200,6917.882,95.438,540.738,538.756,0.0
49771.0,STARLINK-3201,PAYLOAD,2022-09-11 13:08:06,15.08837786,0.0001439,53.2162,103.4566,61.6184,298.4953,2.0948000000000007e-05,4.5e-07,0.0,0 STARLINK-3201,1 49771U 21115AZ  22254.54729793  .00000045  00000-0  20948-4 0  9995,2 49771  53.2162 103.4566 0001439  61.6184 298.4953 15.08837786 43175,6917.887,95.438,540.748,538.757,0.0
49771.0,STARLINK-3201,PAYLOAD,2022-09-11 19:29:39,15.08830837,0.0001529,53.2165,102.2673,70.8758,289.2399,0.00019417,2.803e-05,0.0,0 STARLINK-3201,1 49771U 21115AZ  22254.81225702  .00002803  00000-0  19417-3 0  9998,2 49771  53.2165 102.2673 0001529  70.8758 289.2399 15.08830837 43210,6917.908,95.438,540.831,538.716,0.0
49771.0,STARLINK-3201,PAYLOAD,2022-09-12 12:58:53,15.0884717,0.0001839,53.2162,98.9957,60.0828,300.0346,-3.864599999999999e-06,-3.5000000000000016e-06,0.0,0 STARLINK-3201,1 49771U 21115AZ  22255.54089321 -.00000350  00000-0 -38646-5 0  9998,2 49771  53.2162  98.9957 0001839  60.0828 300.0346 15.08847170 43320,6917.858,95.437,540.996,538.451,0.0
49771.0,STARLINK-3201,PAYLOAD,2022-09-12 14:34:16,15.08849012,0.0001518,53.2164,98.6982,62.1616,297.953,-4.3495e-05,-9.8e-06,0.0,0 STARLINK-3201,1 49771U 21115AZ  22255.60713498 -.00000980  00000-0 -43495-4 0  9990,2 49771  53.2164  98.6982 0001518  62.1616 297.9530 15.08849012 44449,6917.853,95.437,540.768,538.668,0.0
49771.0,STARLINK-3201,PAYLOAD,2022-09-12 22:31:11,15.088487300000002,0.0001538,53.2163,97.2114,58.3526,301.7616,2.3357e-05,8.4e-07,0.0,0 STARLINK-3201,1 49771U 21115AZ  22255.93833243  .00000084  00000-0  23357-4 0  9995,2 49771  53.2163  97.2114 0001538  58.3526 301.7616 15.08848730 43386,6917.854,95.437,540.783,538.655,0.0
49771.0,STARLINK-3201,PAYLOAD,2022-09-13 14:25:03,15.08842083,0.0001598,53.2155,94.2372,61.4006,298.7147,7.7939e-05,9.53e-06,0.0,0 STARLINK-3201,1 49771U 21115AZ  22256.60073419  .00000953  00000-0  77939-4 0  9991,2 49771  53.2155  94.2372 0001598  61.4006 298.7147 15.08842083 43484,6917.874,95.437,540.844,538.634,0.0
49771.0,STARLINK-3201,PAYLOAD,2022-09-14 06:18:55,15.08841356,0.0001526,53.2166,91.2636,60.1402,299.9742,4.7698e-05,4.71e-06,0.0,0 STARLINK-3201,1 49771U 21115AZ  22257.26313702  .00000471  00000-0  47698-4 0  9990,2 49771  53.2166  91.2636 0001526  60.1402 299.9742 15.08841356 43580,6917.876,95.437,540.797,538.686,0.0
49771.0,STARLINK-3201,PAYLOAD,2022-09-15 12:31:14,15.0884153,0.0001242,53.2181,85.6148,47.1163,312.9933,5.7361e-05,6.25e-06,0.0,0 STARLINK-3201,1 49771U 21115AZ  22258.52169679  .00000625  00000-0  57361-4 0  9991,2 49771  53.2181  85.6148 0001242  47.1163 312.9933 15.08841530 43779,6917.876,95.437,540.6,538.882,0.0
49771.0,STARLINK-3201,PAYLOAD,2022-09-15 18:52:46,15.08847008,0.0001431,53.2167,84.42399999999998,58.8514,301.2619,0.00011851,1.599e-05,0.0,0 STARLINK-3201,1 49771U 21115AZ  22258.78665188  .00001599  00000-0  11851-3 0  9999,2 49771  53.2167  84.4240 0001431  58.8514 301.2619 15.08847008 44928,6917.859,95.437,540.714,538.734,0.0
49771.0,STARLINK-3201,PAYLOAD,2022-09-16 12:22:01,15.08839338,0.0001204,53.2166,81.1538,48.6953,311.4142,9.7045e-05,1.257e-05,0.0,0 STARLINK-3201,1 49771U 21115AZ  22259.51529710  .00001257  00000-0  97045-4 0  9992,2 49771  53.2166  81.1538 0001204  48.6953 311.4142 15.08839338 43923,6917.882,95.438,540.58,538.914,0.0
